NORAD_CAT_ID,OBJECT_NAME,OBJECT_TYPE,EPOCH,MEAN_MOTION,ECCENTRICITY,INCLINATION,RA_OF_ASC_NODE,ARG_OF_PERICENTER,MEAN_ANOMALY,BSTAR,MEAN_MOTION_DOT,MEAN_MOTION_DDOT,TLE_LINE0,TLE_LINE1,TLE_LINE2,SEMIMAJOR_AXIS,PERIOD,APOGEE,PERIGEE,DECAYED
55654.0,STARLINK-5070,PAYLOAD,2024-04-29 13:58:30,14.98345779,0.000301,69.9982,96.8904,273.2514,86.8301,-0.00014457,-1.818e-05,0.0,0 STARLINK-5070,1 55654U 23021AC  24120.58229868 -.00001818  00000-0 -14457-3 0  9994,2 55654  69.9982  96.8904 0003010 273.2514  86.8301 14.98345779 67066,6950.144,96.106,574.101,569.917,0.0
55654.0,STARLINK-5070,PAYLOAD,2024-04-29 15:34:38,14.98345478,0.0003088,69.998,96.7218,271.8375,88.243,-0.00015898,-1.99e-05,0.0,0 STARLINK-5070,1 55654U 23021AC  24120.64905804 -.00001990  00000-0 -15898-3 0  9993,2 55654  69.9980  96.7218 0003088 271.8375  88.2430 14.98345478 67071,6950.145,96.106,574.156,569.864,0.0
55654.0,STARLINK-5070,PAYLOAD,2024-04-30 04:23:42,14.98344581,0.0003048,69.9983,95.3756,272.4514,87.6296,-9.2098e-05,-1.192e-05,0.0,0 STARLINK-5070,1 55654U 23021AC  24121.18313287 -.00001192  00000-0 -92098-4 0  9993,2 55654  69.9983  95.3756 0003048 272.4514  87.6296 14.98344581 66856,6950.148,96.106,574.131,569.894,0.0
55654.0,STARLINK-5070,PAYLOAD,2024-04-30 07:35:58,14.98344256,0.0003045,69.9984,95.0388,272.0416,88.0395,-8.4693e-05,-1.104e-05,0.0,0 STARLINK-5070,1 55654U 23021AC  24121.31665163 -.00001104  00000-0 -84693-4 0  9996,2 55654  69.9984  95.0388 0003045 272.0416  88.0395 14.98344256 67179,6950.149,96.106,574.13,569.897,0.0
55654.0,STARLINK-5070,PAYLOAD,2024-04-30 15:36:39,14.98334631,0.0002997,69.9982,94.1975,271.7368,88.3447,-3.9168e-05,-5.6e-06,0.0,0 STARLINK-5070,1 55654U 23021AC  24121.65045474 -.00000560  00000-0 -39168-4 0  9992,2 55654  69.9982  94.1975 0002997 271.7368  88.3447 14.98334631 66925,6950.179,96.107,574.127,569.961,0.0
55654.0,STARLINK-5070,PAYLOAD,2024-05-01 06:01:52,14.98329758,0.0003108,69.9983,92.6821,271.5032,88.5771,2.4397e-06,-6.4e-07,0.0,0 STARLINK-5070,1 55654U 23021AC  24122.25129644 -.00000064  00000-0  24397-5 0  9998,2 55654  69.9983  92.6821 0003108 271.5032  88.5771 14.98329758 67310,6950.194,96.107,574.219,569.899,0.0
55654.0,STARLINK-5070,PAYLOAD,2024-05-01 15:38:40,14.98333355,0.00031,69.9984,91.6725,270.3941,89.6863,1.9584e-06,-7e-07,0.0,0 STARLINK-5070,1 55654U 23021AC  24122.65185355 -.00000070  00000-0  19584-5 0  9992,2 55654  69.9984  91.6725 0003100 270.3941  89.6863 14.98333355 67076,6950.183,96.107,574.202,569.893,0.0
55654.0,STARLINK-5070,PAYLOAD,2024-05-01 22:03:12,14.98311986,0.0003002,69.9983,90.9993,269.0441,91.0374,0.00037725,4.409e-05,0.0,0 STARLINK-5070,1 55654U 23021AC  24122.91890010  .00004409  00000-0  37725-3 0  9996,2 55654  69.9983  90.9993 0003002 269.0441  91.0374 14.98311986 67413,6950.249,96.108,574.2,570.027,0.0
55654.0,STARLINK-5070,PAYLOAD,2024-05-02 07:40:00,14.98334788,0.000302,69.9987,89.9889,269.8263,90.255,4.4501e-05,4.38e-06,0.0,0 STARLINK-5070,1 55654U 23021AC  24123.31945096  .00000438  00000-0  44501-4 0  9995,2 55654  69.9987  89.9889 0003020 269.8263  90.2550 14.98334788 67477,6950.178,96.107,574.142,569.944,0.0
55654.0,STARLINK-5070,PAYLOAD,2024-05-02 15:40:40,14.98331488,0.0003052,69.9988,89.1473,269.881,90.1999,4.9751e-05,5.01e-06,0.0,0 STARLINK-5070,1 55654U 23021AC  24123.65325207  .00000501  00000-0  49751-4 0  9991,2 55654  69.9988  89.1473 0003052 269.8810  90.1999 14.98331488 67225,6950.188,96.107,574.174,569.932,0.0
55654.0,STARLINK-5070,PAYLOAD,2024-05-03 07:42:01,14.98336455,0.0003042,69.9988,87.4643,269.6554,90.4256,0.00012613,1.412e-05,0.0,0 STARLINK-5070,1 55654U 23021AC  24124.32084632  .00001412  00000-0  12613-3 0  9998,2 55654  69.9988  87.4643 0003042 269.6554  90.4256 14.98336455 67629,6950.173,96.107,574.152,569.924,0.0
55654.0,STARLINK-5070,PAYLOAD,2024-05-04 04:31:47,14.98321424,0.0003081,69.9993,85.2762,273.8355,86.2452,-7.262e-05,-9.59e-06,0.0,0 STARLINK-5070,1 55654U 23021AC  24125.18874273 -.00000959  00000-0 -72620-4 0  9993,2 55654  69.9993  85.2762 0003081 273.8355  86.2452 14.98321424 67454,6950.219,96.108,574.226,569.943,0.0
55654.0,STARLINK-5070,PAYLOAD,2024-05-05 04:33:47,14.98334048,0.0003005,69.9987,82.7512,270.1375,89.944,1.5993e-05,9.8e-07,0.0,0 STARLINK-5070,1 55654U 23021AC  24126.19013430  .00000098  00000-0  15993-4 0  9997,2 55654  69.9987  82.7512 0003005 270.1375  89.9440 14.98334048 67600,6950.18,96.107,574.134,569.957,0.0
55654.0,STARLINK-5070,PAYLOAD,2024-05-05 06:09:55,14.98335268,0.0002992,69.9988,82.5829,270.5894,89.4923,3.0848e-05,2.75e-06,0.0,0 STARLINK-5070,1 55654U 23021AC  24126.25689305  .00000275  00000-0  30848-4 0  9997,2 55654  69.9988  82.5829 0002992 270.5894  89.4923 14.98335268 67914,6950.177,96.107,574.121,569.962,0.0
55654.0,STARLINK-5070,PAYLOAD,2024-05-05 22:11:16,14.98329292,0.0002854,69.9991,80.8995,269.9213,90.1619,0.00015492,1.756e-05,0.0,0 STARLINK-5070,1 55654U 23021AC  24126.92449332  .00001756  00000-0  15492-3 0  9997,2 55654  69.9991  80.8995 0002854 269.9213  90.1619 14.98329292 68010,6950.195,96.107,574.044,570.076,0.0
55654.0,STARLINK-5070,PAYLOAD,2024-05-06 04:35:48,14.9833456,0.0002792,69.9991,80.226,268.8369,91.2471,0.00020718,2.38e-05,0.0,0 STARLINK-5070,1 55654U 23021AC  24127.19152885  .00002380  00000-0  20718-3 0  9992,2 55654  69.9991  80.2260 0002792 268.8369  91.2471 14.98334560 67752,6950.179,96.107,573.984,570.103,0.0
55654.0,STARLINK-5070,PAYLOAD,2024-05-06 14:12:36,14.98336018,0.0002728,69.9993,79.2157,266.8108,93.2739,0.00016111,1.83e-05,0.0,0 STARLINK-5070,1 55654U 23021AC  24127.59208826  .00001830  00000-0  16111-3 0  9994,2 55654  69.9993  79.2157 0002728 266.8108  93.2739 14.98336018 68115,6950.174,96.107,573.935,570.143,0.0
55654.0,STARLINK-5070,PAYLOAD,2024-05-06 22:13:15,14.9834374,0.0003221,69.9998,78.3734,267.7704,92.3086,0.00020219,2.321e-05,0.0,0 STARLINK-5070,1 55654U 23021AC  24127.92587809  .00002321  00000-0  20219-3 0  9992,2 55654  69.9998  78.3734 0003221 267.7704  92.3086 14.98343740 68162,6950.15,96.106,574.254,569.777,0.0
55654.0,STARLINK-5070,PAYLOAD,2024-05-07 04:37:47,14.98356436,0.0002923,69.9992,77.7002,267.1158,92.9666,0.00024314,2.811e-05,0.0,0 STARLINK-5070,1 55654U 23021AC  24128.19290679  .00002811  00000-0  24314-3 0  9992,2 55654  69.9992  77.7002 0002923 267.1158  92.9666 14.98356436 67909,6950.111,96.105,574.008,569.945,0.0
55654.0,STARLINK-5070,PAYLOAD,2024-05-07 06:13:55,14.98357817,0.0002928,69.999,77.5322,267.3493,92.7331,0.00025638,2.97e-05,0.0,0 STARLINK-5070,1 55654U 23021AC  24128.25966485  .00002970  00000-0  25638-3 0  9990,2 55654  69.9990  77.5322 0002928 267.3493  92.7331 14.98357817 68215,6950.107,96.105,574.007,569.937,0.0
55654.0,STARLINK-5070,PAYLOAD,2024-05-07 20:39:09,14.98335156,0.0002065,69.9995,76.0164,273.8662,86.2261,-6.0614e-05,-8.16e-06,0.0,0 STARLINK-5070,1 55654U 23021AC  24128.86052514 -.00000816  00000-0 -60614-4 0  9999,2 55654  69.9995  76.0164 0002065 273.8662  86.2261 14.98335156 68009,6950.177,96.107,573.477,570.607,0.0
55654.0,STARLINK-5070,PAYLOAD,2024-05-07 22:15:18,14.98316912,0.0002847,69.9995,75.8494,271.4028,88.6805,-0.00025739,-3.162e-05,0.0,0 STARLINK-5070,1 55654U 23021AC  24128.92729946 -.00003162  00000-0 -25739-3 0  9991,2 55654  69.9995  75.8494 0002847 271.4028  88.6805 14.98316912 68313,6950.233,96.108,574.077,570.12,0.0
55654.0,STARLINK-5070,PAYLOAD,2024-05-08 04:39:50,14.98321117,0.0003359,69.9983,75.1795,270.2702,89.8072,-0.00011341,-1.446e-05,0.0,0 STARLINK-5070,1 55654U 23021AC  24129.19433435 -.00001446  00000-0 -11341-3 0  9993,2 55654  69.9983  75.1795 0003359 270.2702  89.8072 14.98321117 68055,6950.22,96.108,574.42,569.751,0.0
55654.0,STARLINK-5070,PAYLOAD,2024-05-08 06:15:58,14.98323901,0.0003165,69.9989,75.0082,262.8688,97.2111,-0.00017312,-2.158e-05,0.0,0 STARLINK-5070,1 55654U 23021AC  24129.26109367 -.00002158  00000-0 -17312-3 0  9990,2 55654  69.9989  75.0082 0003165 262.8688  97.2111 14.98323901 68368,6950.212,96.107,574.276,569.877,0.0
55654.0,STARLINK-5070,PAYLOAD,2024-05-08 20:41:10,14.98335201,0.0003051,69.9995,73.4932,272.4315,87.6495,-0.00016289,-2.036e-05,0.0,0 STARLINK-5070,1 55654U 23021AC  24129.86192757 -.00002036  00000-0 -16289-3 0  9998,2 55654  69.9995  73.4932 0003051 272.4315  87.6495 14.98335201 68150,6950.177,96.107,574.162,569.921,0.0
55654.0,STARLINK-5070,PAYLOAD,2024-05-08 22:17:18,14.98335514,0.0003055,69.9996,73.3247,272.079,88.0019,-0.00015275,-1.915e-05,0.0,0 STARLINK-5070,1 55654U 23021AC  24129.92868697 -.00001915  00000-0 -15275-3 0  9997,2 55654  69.9996  73.3247 0003055 272.0790  88.0019 14.98335514 68464,6950.176,96.107,574.164,569.918,0.0
55654.0,STARLINK-5070,PAYLOAD,2024-05-09 04:41:50,14.9834409,0.0003003,69.9997,72.6515,270.2557,89.8258,-6.116e-05,-8.23e-06,0.0,0 STARLINK-5070,1 55654U 23021AC  24130.19571966 -.00000823  00000-0 -61160-4 0  9990,2 55654  69.9997  72.6515 0003003 270.2557  89.8258 14.98344090 68204,6950.149,96.106,574.101,569.927,0.0
55654.0,STARLINK-5070,PAYLOAD,2024-05-09 06:17:58,14.98345582,0.0002986,69.9998,72.4831,269.9206,90.1611,-2.7691e-05,-4.24e-06,0.0,0 STARLINK-5070,1 55654U 23021AC  24130.26247797 -.00000424  00000-0 -27691-4 0  9998,2 55654  69.9998  72.4831 0002986 269.9206  90.1611 14.98345582 68518,6950.145,96.106,574.085,569.934,0.0
55654.0,STARLINK-5070,PAYLOAD,2024-05-09 20:43:11,14.98324524,0.0002976,70.0,70.9682,274.6762,85.4057,0.00038681,4.525e-05,0.0,0 STARLINK-5070,1 55654U 23021AC  24130.86332864  .00004525  00000-0  38681-3 0  9998,2 55654  70.0000  70.9682 0002976 274.6762  85.4057 14.98324524 68302,6950.21,96.107,574.143,570.006,0.0
55654.0,STARLINK-5070,PAYLOAD,2024-05-09 22:19:19,14.98328261,0.000298,70.0015,70.7998,275.047,85.0348,0.00048217,5.665e-05,0.0,0 STARLINK-5070,1 55654U 23021AC  24130.93009129  .00005665  00000-0  48217-3 0  9993,2 55654  70.0015  70.7998 0002980 275.0470  85.0348 14.98328261 68617,6950.198,96.107,574.134,569.992,0.0
